API VERSION: 1.2
API SOURCE: NASA/JPL Horizons API



*******************************************************************************
Ephemeris / API_USER Sat Jul 11 19:37:10 2026 Pasadena, USA      / Horizons    
*******************************************************************************
Target body name: 2060 Chiron (1977 UB)           {source: JPL#171}
Center body name: Earth (399)                     {source: DE441}
Center-site name: GEOCENTRIC
*******************************************************************************
Start time      : A.D. 2080-Jan-01 00:00:00.0000 UT      
Stop  time      : A.D. 2085-Jan-01 00:00:00.0000 UT      
Step-size       : 2880 minutes
*******************************************************************************
Target pole/equ : undefined
Target radii    : 83. km                                                       
Center geodetic : 0.0, 0.0, -6378.137             {E-lon(deg),Lat(deg),Alt(km)}
Center cylindric: 0.0, 0.0, 0.0                   {E-lon(deg),Dxy(km),Dz(km)}
Center pole/equ : ITRF93                          {East-longitude positive}
Center radii    : 6378.137, 6378.137, 6356.752 km {Equator_a, b, pole_c}       
Target primary  : Sun
Vis. interferer : MOON (R_eq= 1737.400) km        {source: DE441}
Rel. light bend : Sun                             {source: DE441}
Rel. lght bnd GM: 1.3271E+11 km^3/s^2                                          
Small-body perts: Yes                             {source: SB441-N16}
Atmos refraction: NO (AIRLESS)
RA format       : DEG
Time format     : CAL 
Calendar mode   : Mixed Julian/Gregorian
EOP file        : eop.260710.p261006                                           
EOP coverage    : DATA-BASED 1962-JAN-20 TO 2026-JUL-10. PREDICTS-> 2026-OCT-05
Units conversion: 1 au= 149597870.700 km, c= 299792.458 km/s, 1 day= 86400.0 s 
Table cut-offs 1: Elevation (-90.0deg=NO ),Airmass (>38.000=NO), Daylight (NO )
Table cut-offs 2: Solar elongation (  0.0,180.0=NO ),Local Hour Angle( 0.0=NO )
Table cut-offs 3: RA/DEC angular rate (     0.0=NO )                           
*******************************************************************************
Initial IAU76/J2000 heliocentric ecliptic osculating elements (au, days, deg.):
  EPOCH=  2457916.5 ! 2017-Jun-12.00 (TDB)         Residual RMS= .19933        
   EC= .3824171374703196   QR= 8.427522999110739   TP= 2450143.7110841358      
   OM= 209.2011323125998   W=  339.6529896907077   IN= 6.94959060447848        
  Equivalent ICRF heliocentric cartesian coordinates (au, au/d):
   X= 1.843374627977423E+01  Y=-1.877818593473934E+00  Z= 5.548833989583914E-01
  VX= 7.316266023833624E-04 VY= 2.960187278972600E-03 VZ= 9.710586201315230E-04
Asteroid physical parameters (km, seconds, rotational period in hours):        
   GM= n.a.                RAD= 83.                ROTPER= 5.918               
   H= 5.54                 G= .150                 B-V= .704                   
                           ALBEDO= .150            STYP= Cb                    
*******************************************************************************
 Date__(UT)__HR:MN        ObsEcLon    ObsEcLat
**********************************************
$$SOE
 2083-Dec-11 00:00      55.9577341  -3.3432391
 2083-Dec-13 00:00      55.8633747  -3.3431518
 2083-Dec-15 00:00      55.7711326  -3.3428073
 2083-Dec-17 00:00      55.6812140  -3.3422128
 2083-Dec-19 00:00      55.5938221  -3.3413754
 2083-Dec-21 00:00      55.5091290  -3.3403019
 2083-Dec-23 00:00      55.4272724  -3.3389991
 2083-Dec-25 00:00      55.3483627  -3.3374736
 2083-Dec-27 00:00      55.2724987  -3.3357319
 2083-Dec-29 00:00      55.1997875  -3.3337806
 2083-Dec-31 00:00      55.1303597  -3.3316264
 2084-Jan-02 00:00      55.0643750  -3.3292766
 2084-Jan-04 00:00      55.0020063  -3.3267389
 2084-Jan-06 00:00      54.9433912  -3.3240220
 2084-Jan-08 00:00      54.8885881  -3.3211359
 2084-Jan-10 00:00      54.8376226  -3.3180919
 2084-Jan-12 00:00      54.7905769  -3.3149014
 2084-Jan-14 00:00      54.7475789  -3.3115757
 2084-Jan-16 00:00      54.7087373  -3.3081254
 2084-Jan-18 00:00      54.6741203  -3.3045605
 2084-Jan-20 00:00      54.6437618  -3.3008904
 2084-Jan-22 00:00      54.6176738  -3.2971241
 2084-Jan-24 00:00      54.5958613  -3.2932703
 2084-Jan-26 00:00      54.5783431  -3.2893375
 2084-Jan-28 00:00      54.5651674  -3.2853340
 2084-Jan-30 00:00      54.5564065  -3.2812684
 2084-Feb-01 00:00      54.5521267  -3.2771495
 2084-Feb-03 00:00      54.5523449  -3.2729871
 2084-Feb-05 00:00      54.5570127  -3.2687916
 2084-Feb-07 00:00      54.5660746  -3.2645741
 2084-Feb-09 00:00      54.5795343  -3.2603456
 2084-Feb-11 00:00      54.5974298  -3.2561166
 2084-Feb-13 00:00      54.6197706  -3.2518964
 2084-Feb-15 00:00      54.6465235  -3.2476936
 2084-Feb-17 00:00      54.6776270  -3.2435162
 2084-Feb-19 00:00      54.7130058  -3.2393714
 2084-Feb-21 00:00      54.7525863  -3.2352661
 2084-Feb-23 00:00      54.7963165  -3.2312068
 2084-Feb-25 00:00      54.8441797  -3.2271997
 2084-Feb-27 00:00      54.8961776  -3.2232512
 2084-Feb-29 00:00      54.9522877  -3.2193683
 2084-Mar-02 00:00      55.0124301  -3.2155584
 2084-Mar-04 00:00      55.0764847  -3.2118295
 2084-Mar-06 00:00      55.1443513  -3.2081898
 2084-Mar-08 00:00      55.2159855  -3.2046474
 2084-Mar-10 00:00      55.2913621  -3.2012094
 2084-Mar-12 00:00      55.3704228  -3.1978822
 2084-Mar-14 00:00      55.4530690  -3.1946711
 2084-Mar-16 00:00      55.5391809  -3.1915810
 2084-Mar-18 00:00      55.6286349  -3.1886160
 2084-Mar-20 00:00      55.7213177  -3.1857800
 2084-Mar-22 00:00      55.8171438  -3.1830765
 2084-Mar-24 00:00      55.9160662  -3.1805089
 2084-Mar-26 00:00      56.0180485  -3.1780807
 2084-Mar-28 00:00      56.1230107  -3.1757962
 2084-Mar-30 00:00      56.2308153  -3.1736603
 2084-Apr-01 00:00      56.3413146  -3.1716782
 2084-Apr-03 00:00      56.4544024  -3.1698551
 2084-Apr-05 00:00      56.5700180  -3.1681960
 2084-Apr-07 00:00      56.6881023  -3.1667050
 2084-Apr-09 00:00      56.8085609  -3.1653855
 2084-Apr-11 00:00      56.9312640  -3.1642401
 2084-Apr-13 00:00      57.0560680  -3.1632707
 2084-Apr-15 00:00      57.1828339  -3.1624791
 2084-Apr-17 00:00      57.3114403  -3.1618666
 2084-Apr-19 00:00      57.4417975  -3.1614343
 2084-Apr-21 00:00      57.5738526  -3.1611833
 2084-Apr-23 00:00      57.7075518  -3.1611152
 2084-Apr-25 00:00      57.8427814  -3.1612323
 2084-Apr-27 00:00      57.9793769  -3.1615374
 2084-Apr-29 00:00      58.1171939  -3.1620340
 2084-May-01 00:00      58.2561425  -3.1627251
 2084-May-03 00:00      58.3961613  -3.1636134
 2084-May-05 00:00      58.5371739  -3.1647008
 2084-May-07 00:00      58.6790684  -3.1659887
 2084-May-09 00:00      58.8217043  -3.1674777
 2084-May-11 00:00      58.9649341  -3.1691683
 2084-May-13 00:00      59.1086218  -3.1710610
 2084-May-15 00:00      59.2526542  -3.1731569
 2084-May-17 00:00      59.3969485  -3.1754575
 2084-May-19 00:00      59.5414458  -3.1779594
 2084-May-21 00:00      59.6860866  -3.1806449
 2084-May-23 00:00      59.8307571  -3.1835221
 2084-May-25 00:00      59.9752796  -3.1866062
 2084-May-27 00:00      60.1195223  -3.1898986
 2084-May-29 00:00      60.2634160  -3.1933988
 2084-May-31 00:00      60.4069009  -3.1971066
 2084-Jun-02 00:00      60.5498895  -3.2010219
 2084-Jun-04 00:00      60.6922608  -3.2051440
 2084-Jun-06 00:00      60.8338728  -3.2094718
 2084-Jun-08 00:00      60.9745838  -3.2140038
 2084-Jun-10 00:00      61.1142690  -3.2187384
 2084-Jun-12 00:00      61.2528311  -3.2236738
 2084-Jun-14 00:00      61.3902041  -3.2288080
 2084-Jun-16 00:00      61.5263409  -3.2341395
 2084-Jun-18 00:00      61.6611681  -3.2396670
 2084-Jun-20 00:00      61.7945408  -3.2453903
 2084-Jun-22 00:00      61.9262929  -3.2513099
 2084-Jun-24 00:00      62.0563252  -3.2574261
 2084-Jun-26 00:00      62.1845903  -3.2637389
 2084-Jun-28 00:00      62.3110290  -3.2702474
 2084-Jun-30 00:00      62.4355463  -3.2769501
 2084-Jul-02 00:00      62.5580181  -3.2838445
 2084-Jul-04 00:00      62.6783082  -3.2909280
 2084-Jul-06 00:00      62.7962874  -3.2981973
 2084-Jul-08 00:00      62.9118490  -3.3056489
 2084-Jul-10 00:00      63.0249165  -3.3132791
 2084-Jul-12 00:00      63.1354408  -3.3210843
 2084-Jul-14 00:00      63.2433784  -3.3290611
 2084-Jul-16 00:00      63.3486488  -3.3372065
 2084-Jul-18 00:00      63.4511093  -3.3455184
 2084-Jul-20 00:00      63.5506166  -3.3539952
 2084-Jul-22 00:00      63.6471040  -3.3626352
 2084-Jul-24 00:00      63.7405453  -3.3714359
 2084-Jul-26 00:00      63.8308859  -3.3803940
 2084-Jul-28 00:00      63.9180329  -3.3895053
 2084-Jul-30 00:00      64.0018716  -3.3987646
 2084-Aug-01 00:00      64.0822844  -3.4081665
 2084-Aug-03 00:00      64.1591680  -3.4177051
 2084-Aug-05 00:00      64.2324468  -3.4273740
 2084-Aug-07 00:00      64.3020778  -3.4371668
 2084-Aug-09 00:00      64.3680390  -3.4470769
 2084-Aug-11 00:00      64.4302999  -3.4570983
 2084-Aug-13 00:00      64.4887869  -3.4672251
 2084-Aug-15 00:00      64.5433827  -3.4774523
 2084-Aug-17 00:00      64.5939924  -3.4877753
 2084-Aug-19 00:00      64.6405968  -3.4981890
 2084-Aug-21 00:00      64.6832023  -3.5086876
 2084-Aug-23 00:00      64.7217767  -3.5192641
 2084-Aug-25 00:00      64.7562515  -3.5299106
 2084-Aug-27 00:00      64.7865463  -3.5406185
 2084-Aug-29 00:00      64.8125876  -3.5513785
 2084-Aug-31 00:00      64.8343235  -3.5621810
 2084-Sep-02 00:00      64.8517355  -3.5730160
 2084-Sep-04 00:00      64.8648390  -3.5838735
 2084-Sep-06 00:00      64.8736622  -3.5947435
 2084-Sep-08 00:00      64.8782109  -3.6056163
 2084-Sep-10 00:00      64.8784484  -3.6164832
 2084-Sep-12 00:00      64.8743205  -3.6273355
 2084-Sep-14 00:00      64.8658159  -3.6381651
 2084-Sep-16 00:00      64.8529893  -3.6489634
 2084-Sep-18 00:00      64.8359046  -3.6597208
 2084-Sep-20 00:00      64.8145834  -3.6704269
 2084-Sep-22 00:00      64.7890166  -3.6810702
